{
  "type": "FeatureCollection",
  "features": [
    {
      "type": "Feature",
      "properties": {
        "norad_id": 24946,
        "name": "IRIDIUM 33",
        "group": "iridium-33-debris",
        "lat": -21.81579023651147,
        "lon": 61.13815570142085,
        "alt_km": 786.406288518845,
        "timestamp": "2025-12-26T03:50:12.478235+00:00",
        "meta_object_name": "IRIDIUM 33",
        "meta_object_id": "1997-051C",
        "meta_epoch": "2025-12-25T06:11:00.134016",
        "meta_mean_motion": 14.35045823,
        "meta_eccentricity": 0.0008508,
        "meta_inclination": 86.3857,
        "meta_ra_of_asc_node": 62.9667,
        "meta_arg_of_pericenter": 159.9967,
        "meta_mean_anomaly": 200.1564,
        "meta_ephemeris_type": 0,
        "meta_classification_type": "U",
        "meta_norad_cat_id": 24946,
        "meta_element_set_no": 999,
        "meta_rev_at_epoch": 48014,
        "meta_bstar": 0.00011524,
        "meta_mean_motion_dot": 3.48e-06,
        "meta_mean_motion_ddot": 0,
        "tle_line1": "1 24946U 97051C   25359.25764044  .00000348  00000+0  11524-3 0  9993",
        "tle_line2": "2 24946  86.3857  62.9667 0008508 159.9967 200.1564 14.35045823480147"
      },
      "geometry": {
        "type": "Point",
        "coordinates": [
          61.13815570142085,
          -21.81579023651147
        ]
      }
    },
    {
      "type": "Feature",
      "properties": {
        "norad_id": 33773,
        "name": "IRIDIUM 33 DEB",
        "group": "iridium-33-debris",
        "lat": -27.924940248862143,
        "lon": 52.989647508905726,
        "alt_km": 760.3188239777646,
        "timestamp": "2025-12-26T03:50:12.478280+00:00",
        "meta_object_name": "IRIDIUM 33 DEB",
        "meta_object_id": "1997-051L",
        "meta_epoch": "2025-12-25T14:39:17.561952",
        "meta_mean_motion": 14.43283203,
        "meta_eccentricity": 0.0013294,
        "meta_inclination": 86.3997,
        "meta_ra_of_asc_node": 55.1348,
        "meta_arg_of_pericenter": 109.508,
        "meta_mean_anomaly": 250.7558,
        "meta_ephemeris_type": 0,
        "meta_classification_type": "U",
        "meta_norad_cat_id": 33773,
        "meta_element_set_no": 999,
        "meta_rev_at_epoch": 88533,
        "meta_bstar": 0.0002966,
        "meta_mean_motion_dot": 1.019e-05,
        "meta_mean_motion_ddot": 0,
        "tle_line1": "1 33773U 97051L   25359.61061993  .00001019  00000+0  29660-3 0  9990",
        "tle_line2": "2 33773  86.3997  55.1348 0013294 109.5080 250.7558 14.43283203885334"
      },
      "geometry": {
        "type": "Point",
        "coordinates": [
          52.989647508905726,
          -27.924940248862143
        ]
      }
    },
    {
      "type": "Feature",
      "properties": {
        "norad_id": 33775,
        "name": "IRIDIUM 33 DEB",
        "group": "iridium-33-debris",
        "lat": -30.660747451457254,
        "lon": 41.66200980084542,
        "alt_km": 768.6286821056365,
        "timestamp": "2025-12-26T03:50:12.478298+00:00",
        "meta_object_name": "IRIDIUM 33 DEB",
        "meta_object_id": "1997-051N",
        "meta_epoch": "2025-12-25T15:15:04.201056",
        "meta_mean_motion": 14.41495203,
        "meta_eccentricity": 0.0015345,
        "meta_inclination": 86.3624,
        "meta_ra_of_asc_node": 44.0472,
        "meta_arg_of_pericenter": 116.415,
        "meta_mean_anomaly": 13.4748,
        "meta_ephemeris_type": 0,
        "meta_classification_type": "U",
        "meta_norad_cat_id": 33775,
        "meta_element_set_no": 999,
        "meta_rev_at_epoch": 88326,
        "meta_bstar": 0.00032187,
        "meta_mean_motion_dot": 1.066e-05,
        "meta_mean_motion_ddot": 0,
        "tle_line1": "1 33775U 97051N   25359.63546529  .00001066  00000+0  32187-3 0  9997",
        "tle_line2": "2 33775  86.3624  44.0472 0015345 116.4150  13.4748 14.41495203883260"
      },
      "geometry": {
        "type": "Point",
        "coordinates": [
          41.66200980084542,
          -30.660747451457254
        ]
      }
    },
    {
      "type": "Feature",
      "properties": {
        "norad_id": 33776,
        "name": "IRIDIUM 33 DEB",
        "group": "iridium-33-debris",
        "lat": 42.681839166083236,
        "lon": 78.46542238784818,
        "alt_km": 763.7414575997773,
        "timestamp": "2025-12-26T03:50:12.478311+00:00",
        "meta_object_name": "IRIDIUM 33 DEB",
        "meta_object_id": "1997-051P",
        "meta_epoch": "2025-12-25T18:12:32.556096",
        "meta_mean_motion": 14.38256901,
        "meta_eccentricity": 0.0015777,
        "meta_inclination": 86.4031,
        "meta_ra_of_asc_node": 75.3085,
        "meta_arg_of_pericenter": 149.2328,
        "meta_mean_anomaly": 338.0492,
        "meta_ephemeris_type": 0,
        "meta_classification_type": "U",
        "meta_norad_cat_id": 33776,
        "meta_element_set_no": 999,
        "meta_rev_at_epoch": 88269,
        "meta_bstar": 0.00026708,
        "meta_mean_motion_dot": 8.32e-06,
        "meta_mean_motion_ddot": 0,
        "tle_line1": "1 33776U 97051P   25359.75871014  .00000832  00000+0  26708-3 0  9993",
        "tle_line2": "2 33776  86.4031  75.3085 0015777 149.2328 338.0492 14.38256901882695"
      },
      "geometry": {
        "type": "Point",
        "coordinates": [
          78.46542238784818,
          42.681839166083236
        ]
      }
    },
    {
      "type": "Feature",
      "properties": {
        "norad_id": 33777,
        "name": "IRIDIUM 33 DEB",
        "group": "iridium-33-debris",
        "lat": -49.12194109212138,
        "lon": 25.16670162951189,
        "alt_km": 716.138518710588,
        "timestamp": "2025-12-26T03:50:12.478339+00:00",
        "meta_object_name": "IRIDIUM 33 DEB",
        "meta_object_id": "1997-051Q",
        "meta_epoch": "2025-12-25T19:48:50.912064",
        "meta_mean_motion": 14.55702308,
        "meta_eccentricity": 0.0006406,
        "meta_inclination": 86.3774,
        "meta_ra_of_asc_node": 29.5095,
        "meta_arg_of_pericenter": 194.4339,
        "meta_mean_anomaly": 165.6687,
        "meta_ephemeris_type": 0,
        "meta_classification_type": "U",
        "meta_norad_cat_id": 33777,
        "meta_element_set_no": 999,
        "meta_rev_at_epoch": 88724,
        "meta_bstar": 0.00084106,
        "meta_mean_motion_dot": 3.697e-05,
        "meta_mean_motion_ddot": 0,
        "tle_line1": "1 33777U 97051Q   25359.82558926  .00003697  00000+0  84106-3 0  9994",
        "tle_line2": "2 33777  86.3774  29.5095 0006406 194.4339 165.6687 14.55702308887246"
      },
      "geometry": {
        "type": "Point",
        "coordinates": [
          25.16670162951189,
          -49.12194109212138
        ]
      }
    },
    {
      "type": "Feature",
      "properties": {
        "norad_id": 33850,
        "name": "IRIDIUM 33 DEB",
        "group": "iridium-33-debris",
        "lat": -17.00918846397177,
        "lon": 23.286741234993947,
        "alt_km": 763.3298525854179,
        "timestamp": "2025-12-26T03:50:12.478354+00:00",
        "meta_object_name": "IRIDIUM 33 DEB",
        "meta_object_id": "1997-051T",
        "meta_epoch": "2025-12-25T13:32:16.366848",
        "meta_mean_motion": 14.42178357,
        "meta_eccentricity": 0.0013303,
        "meta_inclination": 86.3408,
        "meta_ra_of_asc_node": 24.6646,
        "meta_arg_of_pericenter": 122.9915,
        "meta_mean_anomaly": 8.9113,
        "meta_ephemeris_type": 0,
        "meta_classification_type": "U",
        "meta_norad_cat_id": 33850,
        "meta_element_set_no": 999,
        "meta_rev_at_epoch": 88337,
        "meta_bstar": 0.00042851,
        "meta_mean_motion_dot": 1.431e-05,
        "meta_mean_motion_ddot": 0,
        "tle_line1": "1 33850U 97051T   25359.56407832  .00001431  00000+0  42851-3 0  9991",
        "tle_line2": "2 33850  86.3408  24.6646 0013303 122.9915   8.9113 14.42178357883370"
      },
      "geometry": {
        "type": "Point",
        "coordinates": [
          23.286741234993947,
          -17.00918846397177
        ]
      }
    },
    {
      "type": "Feature",
      "properties": {
        "norad_id": 33853,
        "name": "IRIDIUM 33 DEB",
        "group": "iridium-33-debris",
        "lat": 84.67958524807582,
        "lon": 32.63153697337109,
        "alt_km": 933.1172955928432,
        "timestamp": "2025-12-26T03:50:12.478368+00:00",
        "meta_object_name": "IRIDIUM 33 DEB",
        "meta_object_id": "1997-051W",
        "meta_epoch": "2025-12-24T22:19:16.041792",
        "meta_mean_motion": 13.99120379,
        "meta_eccentricity": 0.0207734,
        "meta_inclination": 86.0001,
        "meta_ra_of_asc_node": 344.4648,
        "meta_arg_of_pericenter": 198.227,
        "meta_mean_anomaly": 179.9108,
        "meta_ephemeris_type": 0,
        "meta_classification_type": "U",
        "meta_norad_cat_id": 33853,
        "meta_element_set_no": 999,
        "meta_rev_at_epoch": 85516,
        "meta_bstar": 0.0011909,
        "meta_mean_motion_dot": 2.092e-05,
        "meta_mean_motion_ddot": 0,
        "tle_line1": "1 33853U 97051W   25358.93004678  .00002092  00000+0  11909-2 0  9998",
        "tle_line2": "2 33853  86.0001 344.4648 0207734 198.2270 179.9108 13.99120379855168"
      },
      "geometry": {
        "type": "Point",
        "coordinates": [
          32.63153697337109,
          84.67958524807582
        ]
      }
    }
  ]
}